{
  "type": "FeatureCollection",
  "name": "izmir_litter_drift_domains",
  "crs": {"type": "name", "properties": {"name": "urn:ogc:def:crs:OGC:1.3:CRS84"}},
  "features": [
    {"type": "Feature", "properties": {"id": "A_il_kiyisi", "name": "Kademe A — İzmir il kıyısı", "purpose": "Copernicus MED (1/24°) doğrudan; web sitesi kaynak gridi", "lon_min": 26.0, "lon_max": 27.5, "lat_min": 37.9, "lat_max": 39.2, "target_resolution_m": 4000},
     "geometry": {"type": "Polygon", "coordinates": [[[26.0,37.9],[27.5,37.9],[27.5,39.2],[26.0,39.2],[26.0,37.9]]]}},
    {"type": "Feature", "properties": {"id": "B_model", "name": "Kademe B — D-Flow FM körfez modeli alanı", "purpose": "Faz 3 yerel model; açık sınır kuzeyde (Karaburun–Aliağa arası) ve batıda (Karaburun–Sakız arası)", "lon_min": 26.30, "lon_max": 27.20, "lat_min": 38.30, "lat_max": 38.90, "target_resolution_m": 120},
     "geometry": {"type": "Polygon", "coordinates": [[[26.30,38.30],[27.20,38.30],[27.20,38.90],[26.30,38.90],[26.30,38.30]]]}},
    {"type": "Feature", "properties": {"id": "B_korfez", "name": "İzmir Körfezi (analiz kutusu)", "purpose": "Makale odağı; Foça–Karaburun hattının doğusu", "lon_min": 26.55, "lon_max": 27.20, "lat_min": 38.30, "lat_max": 38.75},
     "geometry": {"type": "Polygon", "coordinates": [[[26.55,38.30],[27.20,38.30],[27.20,38.75],[26.55,38.75],[26.55,38.30]]]}},
    {"type": "Feature", "properties": {"id": "C_ic_korfez", "name": "İç Körfez (Yenikale geçidinin doğusu)", "purpose": "Tuzak analizi; kalış süresi bölgesi", "lon_min": 27.00, "lon_max": 27.20, "lat_min": 38.38, "lat_max": 38.50, "note": "Yaklaşık kutu; kesin sınır Yenikale geçidi (~27.00°D) üzerinden kıyı çizgisiyle kesilecek"},
     "geometry": {"type": "Polygon", "coordinates": [[[27.00,38.38],[27.20,38.38],[27.20,38.50],[27.00,38.50],[27.00,38.38]]]}},
    {"type": "Feature", "properties": {"id": "P_bostanli", "name": "Pilot — Bostanlı drifter salım noktası", "purpose": "Faz 2 saha; test koşusu salım noktası", "verified": false, "note": "GSHHG kara maskesine göre kıyıdan ~400 m açık"},
     "geometry": {"type": "Point", "coordinates": [27.0940, 38.4515]}}
  ]
}
